OBJECT_NAME,OBJECT_ID,EPOCH,MEAN_MOTION,ECCENTRICITY,INCLINATION,RA_OF_ASC_NODE,ARG_OF_PERICENTER,MEAN_ANOMALY,EPHEMERIS_TYPE,CLASSIFICATION_TYPE,NORAD_CAT_ID,ELEMENT_SET_NO,REV_AT_EPOCH,BSTAR,MEAN_MOTION_DOT,MEAN_MOTION_DDOT
CE-SAT IIB,2020-077F,2026-07-05T05:19:01.946784,16.15678702,.00042105,97.1845,270.6632,180.9158,179.2122,0,U,46818,999,31818,.54861633E-3,.74426E-2,.34122987E-3
NAVSTAR 80 (USA 309),2020-078A,2026-07-04T05:10:38.680608,2.00565046,.00741746,53.9786,210.0881,207.5557,150.2596,0,U,46826,999,4184,0,.73E-6,0
RISAT-2BR2,2020-081A,2026-07-05T05:39:40.296384,15.01136109,.00148179,36.8985,117.1025,302.1495,57.7808,0,U,46905,999,31018,.30734419E-3,.3945E-4,0
KSM1-C,2020-081B,2026-07-05T14:24:26.527392,15.27074696,.00026685,36.8967,305.2427,352.4110,7.6599,0,U,46906,999,31198,.51601196E-3,.13961E-3,0
KSM1-D,2020-081C,2026-07-05T13:28:08.423040,15.25013482,.00030173,36.8982,314.8495,32.2857,327.8076,0,U,46907,999,31190,.56536297E-3,.14378E-3,0
KSM1-A,2020-081H,2026-07-05T14:42:48.701088,15.26273696,.00018958,36.8978,307.6971,102.2529,257.8433,0,U,46912,999,31199,.40909931E-3,.10775E-3,0
R2,2020-081J,2026-07-05T09:06:03.774240,15.25719963,.00068623,36.8979,309.2181,75.3510,284.7999,0,U,46913,999,31476,.50826556E-3,.13199E-3,0
KSM1-B,2020-081K,2026-07-05T15:11:07.215360,15.24798003,.00042457,36.9036,315.0602,65.5529,294.5663,0,U,46914,999,31500,.49750864E-3,.12556E-3,0
TIANTONG-1 2,2020-082A,2026-07-05T14:25:48.350784,1.00272315,.00016255,0.7687,330.1028,127.3124,167.5909,0,U,46916,999,2083,0,-.342E-5,0
DRAGRACER 2 (AUGURY),2020-085AC,2026-07-05T02:40:06.034944,15.72488799,.00049232,97.5786,23.8419,180.1294,179.9968,0,U,46955,999,31468,.44784179E-3,.59846E-3,0
SENTINEL-6A,2020-086A,2026-07-05T02:54:16.556544,12.80930091,.00078338,66.0415,97.8050,270.0452,89.9666,0,U,46984,999,26262,.1164363E-3,-.34E-6,0
STARLINK-1777,2020-088A,2026-07-05T01:06:13.440960,15.74969093,.00022955,53.0443,69.3702,224.2620,135.8215,0,U,47122,999,31044,.10057852E-2,.154579E-2,0
STARLINK-1812,2020-088E,2026-07-05T05:47:04.381152,15.22253573,.00025863,53.0850,122.1239,79.2226,280.9062,0,U,47126,999,30973,.1591427E-2,.36936E-3,0
STARLINK-1845,2020-088P,2026-07-05T16:00:03.000096,15.77334793,.0000524,53.0418,57.4008,289.5225,90.1722,0,U,47135,999,600,.50548628E-3,.8519E-3,0
STARLINK-1856,2020-088X,2026-07-05T16:00:03.000096,15.74259375,.0003497,53.0440,56.6116,145.6304,327.6882,0,U,47143,999,599,.48682774E-3,.71519E-3,0
STARLINK-1871,2020-088AM,2026-07-05T10:05:33.010080,15.38674929,.00049618,53.1551,106.7555,68.1087,292.0445,0,U,47157,999,30998,.95201947E-3,.36712E-3,0
STARLINK-1873,2020-088AN,2026-07-05T16:00:03.000096,15.89337244,.00063947,53.0388,44.6215,253.9910,60.4956,0,U,47158,999,596,.76920065E-3,.233902E-2,0
STARLINK-1888,2020-088BB,2026-07-05T16:00:03.000096,15.74992987,.00019543,53.0444,63.9486,208.4931,302.2075,0,U,47171,999,598,.63182371E-3,.96294E-3,0
STARLINK-1912,2020-088BJ,2026-07-05T16:00:03.000096,15.82087304,.00038014,53.0428,59.8156,239.5322,339.7555,0,U,47178,999,600,.85760283E-3,.182248E-2,0
STARLINK-1913,2020-088BK,2026-07-05T10:52:58.745280,15.36802154,.00047529,53.1567,118.1083,84.7394,275.4151,0,U,47179,999,30982,.72558586E-3,.26187E-3,0
LUCAS (JDRS-1),2020-089A,2026-07-05T14:36:07.107840,1.00274146,.00019557,0.0514,266.5213,186.7027,140.1843,0,U,47202,999,2060,0,-.222E-5,0
FALCON EYE 2,2020-090A,2026-07-05T15:11:23.275392,14.84918439,.00013985,97.8570,261.1303,84.5322,275.6053,0,U,47226,999,30297,.25531478E-3,.212E-4,0
GONETS-M 20,2020-091A,2026-07-05T14:25:08.808096,12.42894035,.0021923,82.5057,290.9905,138.8200,221.4539,0,U,47227,999,25336,-.64649189E-4,.1E-7,0
GONETS-M 21,2020-091B,2026-07-05T13:47:38.329152,12.42887204,.00155588,82.4981,289.7024,151.6786,208.5143,0,U,47228,999,25335,-.21848102E-4,.7E-7,0
GONETS-M 22,2020-091C,2026-07-05T15:04:42.165984,12.42893314,.00228389,82.5039,290.5764,134.3449,225.9508,0,U,47229,999,25331,.12733545E-3,.28E-6,0
COSMOS 2548,2020-091D,2026-07-05T14:25:25.580928,12.42928204,.00158113,82.5016,290.1947,150.2964,209.9017,0,U,47230,999,25334,.27171242E-3,.48E-6,0
GAOFEN-14 01,2020-092A,2026-07-05T15:22:11.845632,15.25617379,.00066157,97.4712,256.8540,73.8382,286.3584,0,U,47231,999,31064,.49311625E-3,.12478E-3,0
GECAM-A,2020-094A,2026-06-17T06:46:16.874400,15.00786144,.00106142,28.9954,25.3931,318.1471,41.8315,0,U,47234,999,30170,.11742983E-3,.1679E-4,0
GECAM-B,2020-094B,2026-06-17T05:40:34.924512,15.02194018,.00105871,28.9978,15.0776,333.3126,26.6927,0,U,47235,999,30173,.14016173E-3,.2046E-4,0
