CE-SAT IIB              
1 46818U 20077F   26186.22155031  .00744260  34123-3  54862-3 0  9992
2 46818  97.1845 270.6632 0004210 180.9158 179.2122 16.15678702318186
NAVSTAR 80 (USA 309)    
1 46826U 20078A   26185.21572547  .00000073  00000+0  00000+0 0  9996
2 46826  53.9786 210.0881 0074174 207.5557 150.2596  2.00565046 41843
RISAT-2BR2              
1 46905U 20081A   26186.23588306  .00003945  00000+0  30734-3 0  9993
2 46905  36.8985 117.1025 0014817 302.1495  57.7808 15.01136109310182
KSM1-C                  
1 46906U 20081B   26186.60030703  .00013961  00000+0  51601-3 0  9993
2 46906  36.8967 305.2427 0002668 352.4110   7.6599 15.27074696311982
KSM1-D                  
1 46907U 20081C   26186.56120860  .00014378  00000+0  56536-3 0  9998
2 46907  36.8982 314.8495 0003017  32.2857 327.8076 15.25013482311904
KSM1-A                  
1 46912U 20081H   26186.61306367  .00010775  00000+0  40910-3 0  9994
2 46912  36.8978 307.6971 0001895 102.2529 257.8433 15.26273696311994
R2                      
1 46913U 20081J   26186.37921035  .00013199  00000+0  50827-3 0  9994
2 46913  36.8979 309.2181 0006862  75.3510 284.7999 15.25719963314761
KSM1-B                  
1 46914U 20081K   26186.63272240  .00012556  00000+0  49751-3 0  9991
2 46914  36.9036 315.0602 0004245  65.5529 294.5663 15.24798003315000
TIANTONG-1 2            
1 46916U 20082A   26186.60125406 -.00000342  00000+0  00000+0 0  9993
2 46916   0.7687 330.1028 0001625 127.3124 167.5909  1.00272315 20838
DRAGRACER 2 (AUGURY)    
1 46955U 20085AC  26186.11118096  .00059846  00000+0  44784-3 0  9995
2 46955  97.5786  23.8419 0004923 180.1294 179.9968 15.72488799314684
SENTINEL-6A             
1 46984U 20086A   26186.12102496 -.00000034  00000+0  11644-3 0  9991
2 46984  66.0415  97.8050 0007833 270.0452  89.9666 12.80930091262620
STARLINK-1777           
1 47122U 20088A   26186.04598890  .00154579  00000+0  10058-2 0  9996
2 47122  53.0443  69.3702 0002295 224.2620 135.8215 15.74969093310440
STARLINK-1812           
1 47126U 20088E   26186.24102293  .00036936  00000+0  15914-2 0  9992
2 47126  53.0850 122.1239 0002586  79.2226 280.9062 15.22253573309736
STARLINK-1845           
1 47135U 20088P   26186.66670139  .00085190  00000+0  50549-3 0  9997
2 47135  53.0418  57.4008 0000524 289.5225  90.1722 15.77334793  6007
STARLINK-1856           
1 47143U 20088X   26186.66670139  .00071519  00000+0  48683-3 0  9992
2 47143  53.0440  56.6116 0003497 145.6304 327.6882 15.74259375  5995
STARLINK-1871           
1 47157U 20088AM  26186.42052095  .00036712  00000+0  95202-3 0  9991
2 47157  53.1551 106.7555 0004961  68.1087 292.0445 15.38674929309984
STARLINK-1873           
1 47158U 20088AN  26186.66670139  .00233902  00000+0  76920-3 0  9999
2 47158  53.0388  44.6215 0006394 253.9910  60.4956 15.89337244  5963
STARLINK-1888           
1 47171U 20088BB  26186.66670139  .00096294  00000+0  63182-3 0  9991
2 47171  53.0444  63.9486 0001954 208.4931 302.2075 15.74992987  5986
STARLINK-1912           
1 47178U 20088BJ  26186.66670139  .00182248  00000+0  85760-3 0  9999
2 47178  53.0428  59.8156 0003801 239.5322 339.7555 15.82087304  6004
STARLINK-1913           
1 47179U 20088BK  26186.45345770  .00026187  00000+0  72559-3 0  9998
2 47179  53.1567 118.1083 0004752  84.7394 275.4151 15.36802154309824
LUCAS (JDRS-1)          
1 47202U 20089A   26186.60841560 -.00000222  00000+0  00000+0 0  9992
2 47202   0.0514 266.5213 0001955 186.7027 140.1843  1.00274146 20607
FALCON EYE 2            
1 47226U 20090A   26186.63290828  .00002120  00000+0  25531-3 0  9996
2 47226  97.8570 261.1303 0001398  84.5322 275.6053 14.84918439302970
GONETS-M 20             
1 47227U 20091A   26186.60079639  .00000001  00000+0 -64649-4 0  9991
2 47227  82.5057 290.9905 0021923 138.8200 221.4539 12.42894035253367
GONETS-M 21             
1 47228U 20091B   26186.57474918  .00000007  00000+0 -21848-4 0  9997
2 47228  82.4981 289.7024 0015558 151.6786 208.5143 12.42887204253356
GONETS-M 22             
1 47229U 20091C   26186.62826581  .00000028  00000+0  12734-3 0  9996
2 47229  82.5039 290.5764 0022838 134.3449 225.9508 12.42893314253319
COSMOS 2548             
1 47230U 20091D   26186.60099052  .00000048  00000+0  27171-3 0  9994
2 47230  82.5016 290.1947 0015811 150.2964 209.9017 12.42928204253344
GAOFEN-14 01            
1 47231U 20092A   26186.64041488  .00012478  00000+0  49312-3 0  9991
2 47231  97.4712 256.8540 0006615  73.8382 286.3584 15.25617379310644
GECAM-A                 
1 47234U 20094A   26168.28213975  .00001679  00000+0  11743-3 0  9996
2 47234  28.9954  25.3931 0010614 318.1471  41.8315 15.00786144301708
GECAM-B                 
1 47235U 20094B   26168.23651533  .00002046  00000+0  14016-3 0  9993
2 47235  28.9978  15.0776 0010587 333.3126  26.6927 15.02194018301731
